[{"OBJECT_NAME":"STARLINK-34719","OBJECT_ID":"2025-158M","EPOCH":"2026-03-09T12:42:55.980576","MEAN_MOTION":15.05651936,"ECCENTRICITY":0.00025731,"INCLINATION":97.6018,"RA_OF_ASC_NODE":293.9582,"ARG_OF_PERICENTER":93.7778,"MEAN_ANOMALY":266.3743,"EPHEMERIS_TYPE":0,"CLASSIFICATION_TYPE":"U","NORAD_CAT_ID":64943,"ELEMENT_SET_NO":999,"REV_AT_EPOCH":3533,"BSTAR":0.00016005727,"MEAN_MOTION_DOT":2.25e-5,"MEAN_MOTION_DDOT":0},{"OBJECT_NAME":"ELECTRON KICK STAGE R\/B","OBJECT_ID":"2024-114G","EPOCH":"2026-03-09T16:42:35.427168","MEAN_MOTION":15.12630878,"ECCENTRICITY":0.00674954,"INCLINATION":97.9507,"RA_OF_ASC_NODE":118.387,"ARG_OF_PERICENTER":79.3604,"MEAN_ANOMALY":281.5218,"EPHEMERIS_TYPE":0,"CLASSIFICATION_TYPE":"U","NORAD_CAT_ID":60085,"ELEMENT_SET_NO":999,"REV_AT_EPOCH":9434,"BSTAR":0.00053349816,"MEAN_MOTION_DOT":9.787e-5,"MEAN_MOTION_DDOT":0}]
